0 CZ-4C R/B
1 36416U 10009D   13281.47797818  .00000013  00000-0  99313-4 0  5995
2 36416 063.4509 273.6267 0255285 002.1866 138.0156 13.69380553179815
0 CZ-4C R/B
1 36416U 10009D   13283.52537245 -.00000024  00000-0  65856-4 0  6000
2 36416 063.4509 268.1492 0255453 002.1662 151.2032 13.69381360180094
0 CZ-4C R/B
1 36416U 10009D   13286.13770375 -.00000076  00000-0  17904-4 0  6012
2 36416 063.4512 261.1602 0255753 002.1565 069.3904 13.69381658180456
0 CZ-4C R/B
1 36416U 10009D   13288.18429683 -.00000043  00000-0  48384-4 0  6023
2 36416 063.4515 255.6848 0255940 002.1420 078.6306 13.69381783180736
0 CZ-4C R/B
1 36416U 10009D   13290.45848770  .00000023  00000-0  10826-3 0  6035
2 36416 063.4517 249.6007 0256154 002.1235 129.8829 13.69382287181044
0 CZ-4C R/B
1 36416U 10009D   13292.84583284  .00000004  00000-0  91502-4 0  6047
2 36416 063.4518 243.2142 0256401 002.1097 018.9545 13.69382435181369
0 CZ-4C R/B
1 36416U 10009D   13295.12224733 -.00000031  00000-0  59279-4 0  6059
2 36416 063.4517 237.1245 0256644 002.0983 081.1625 13.69382873181688
